25417,ORBCOMM FM16,1998,100.16,-1.0,-,44.99,Inactive,0,LEO,Eastern Range Airspace,ORBCOMM,Unknown,Unknown,Unknown,1 25417U 98046E   24320.53664072  .00003354  00000+0  11530-2 0  9996,2 25417  44.9924 106.5266 0004088 278.4399  81.5985 14.37638447373490,14.37638447,0.0004088,LEO
25418,ORBCOMM FM15,1998,100.19,45.0,-,45.0,Inactive,1,LEO,Eastern Range Airspace,ORBCOMM,Commercial,Communications,Pegasus,1 25418U 98046F   24320.53258659  .00003223  00000+0  11169-2 0  9990,2 25418  44.9955 111.0874 0003607 278.8246  81.2194 14.37321942373490,14.37321942,0.0003607,LEO
25419,ORBCOMM FM14,1998,100.17,45.0,-,44.99,Inactive,1,LEO,Eastern Range Airspace,ORBCOMM,Commercial,Communications,Pegasus,1 25419U 98046G   24320.52883093  .00003519  00000+0  12086-2 0  9993,2 25419  44.9941 109.8909 0002966 259.3480 100.7034 14.37596862373452,14.37596862,0.0002966,LEO
25475,ORBCOMM FM21,1998,100.25,45.0,-,45.01,Inactive,1,LEO,Eastern Range Airspace,ORBCOMM,Commercial,Communications,Pegasus,1 25475U 98053A   24320.16347369  .00002160  00000+0  77803-3 0  9994,2 25475  45.0070 202.3805 0000426 257.7799 102.3001 14.36427549366466,14.36427549,4.26e-05,LEO
25476,ORBCOMM FM22,1998,100.2,-1.0,-,45.01,Inactive,0,LEO,Eastern Range Airspace,ORBCOMM,Unknown,Unknown,Unknown,1 25476U 98053B   24319.98975749  .00002687  00000+0  94149-3 0  9998,2 25476  45.0064 199.5775 0002119 222.1541 137.9144 14.37196768366802,14.37196768,0.0002119,LEO
25477,ORBCOMM FM23,1998,100.24,45.0,-,45.01,Inactive,1,LEO,Eastern Range Airspace,ORBCOMM,Commercial,Communications,Pegasus,1 25477U 98053C   24320.39344056  .00002100  00000+0  75668-3 0  9992,2 25477  45.0068 203.6435 0001350 228.9287 131.1444 14.36513510366642,14.3651351,0.000135,LEO
25420,ORBCOMM FM13,1998,100.24,45.0,-,45.0,Inactive,1,LEO,Eastern Range Airspace,ORBCOMM,Commercial,Communications,Pegasus,1 25420U 98046H   24320.75273392  .00002964  00000+0  10459-2 0  9990,2 25420  44.9958 114.9225 0004921 268.5247  91.5037 14.36609511373664,14.36609511,0.0004921,LEO
25416,ORBCOMM FM20,1998,100.26,45.0,+,44.99,Active,1,LEO,Eastern Range Airspace,ORBCOMM,Commercial,Communications,Pegasus,1 25416U 98046D   24320.79759886  .00002801  00000+0  99757-3 0  9995,2 25416  44.9927 111.1790 0001426 213.4674 146.6083 14.36288988373610,14.36288988,0.0001426,LEO
